[{"OBJECT_NAME":"TIANMU-1 09","OBJECT_ID":"2023-101C","EPOCH":"2026-03-09T22:17:34.703232","MEAN_MOTION":15.29080822,"ECCENTRICITY":0.00049013,"INCLINATION":97.267,"RA_OF_ASC_NODE":121.1263,"ARG_OF_PERICENTER":139.4293,"MEAN_ANOMALY":220.7314,"EPHEMERIS_TYPE":0,"CLASSIFICATION_TYPE":"U","NORAD_CAT_ID":57401,"ELEMENT_SET_NO":999,"REV_AT_EPOCH":14647,"BSTAR":0.00030540035,"MEAN_MOTION_DOT":8.553e-5,"MEAN_MOTION_DDOT":0},{"OBJECT_NAME":"STARLINK-31801","OBJECT_ID":"2024-082S","EPOCH":"2026-03-09T05:04:30.581184","MEAN_MOTION":15.27548792,"ECCENTRICITY":7.635e-5,"INCLINATION":43.0017,"RA_OF_ASC_NODE":142.9476,"ARG_OF_PERICENTER":260.5473,"MEAN_ANOMALY":99.5293,"EPHEMERIS_TYPE":0,"CLASSIFICATION_TYPE":"U","NORAD_CAT_ID":59647,"ELEMENT_SET_NO":999,"REV_AT_EPOCH":10478,"BSTAR":0.00026306921,"MEAN_MOTION_DOT":6.977e-5,"MEAN_MOTION_DDOT":0}]
